#aV2024  6  8  0  0  0.00000000     288 DD+AD WGS84 FIT  NGA
## 2317 518400.00000000   300.00000000 60469 0.0000000000000
+   31     2  3  4  5  6  7  8  9 10 11 12 13 14 15 16 17 18
+         19 20 21 22 23 24 25 26 27 28 29 30 31 32  0  0  0
+          0  0  0  0  0  0  0  0  0  0  0  0  0  0  0  0  0
+          0  0  0  0  0  0  0  0  0  0  0  0  0  0  0  0  0
+          0  0  0  0  0  0  0  0  0  0  0  0  0  0  0  0  0
++         2  2  2  2  2  2  2  2  2  2  2  2  2  2  2  2  2
++         2  2  2  2  2  2  2  2  2  2  2  2  2  2  0  0  0
++         0  0  0  0  0  0  0  0  0  0  0  0  0  0  0  0  0
++         0  0  0  0  0  0  0  0  0  0  0  0  0  0  0  0  0
++         0  0  0  0  0  0  0  0  0  0  0  0  0  0  0  0  0
%c cc cc ccc ccc cccc cccc cccc cccc ccccc ccccc ccccc ccccc
%c cc cc ccc ccc cccc cccc cccc cccc ccccc ccccc ccccc ccccc
%f  0.0000000  0.000000000  0.00000000000  0.000000000000000
%f  0.0000000  0.000000000  0.00000000000  0.000000000000000
%i    0    0    0    0      0      0      0      0         0
%i    0    0    0    0      0      0      0      0         0
/*      NGA, ST. LOUIS,MO.                                  
/*   EPHEMERIS COMPUTED FROM 2 DAYS OF DATA                 
/*   EPOCHA v9 SMOOTHER                                     
/*   G2296 IERS2010 SATIGS SATAPC                           
*  2024  6  8 11 35  0.00000000
P  2  14215.715728 -17682.748254  14038.927526   -421.556520                    
V  2  -1982.922404  17144.472002  24724.898612      0.069858                    
P  3  19638.871991 -12592.681327 -12737.929298    403.613671                    
V  3  15950.143867  -1469.757542  26489.607575      0.183491                    
P  4  10030.227324 -11479.681829 -21724.950243    378.740302                    
V  4  17868.660292  21065.486021  -3010.412895      0.081558                    
P  5 -26044.417602   4953.675357  -2443.927985   -175.589936                    
V  5   2193.889365  -3008.878650 -31742.802282     -0.013476                    
P  6  -7629.666544 -16530.767100 -19236.086008    230.017333                    
V  6   9020.383327 -22826.163529  16092.272365     -0.208798                    
P  7   4526.631468 -25484.060999   5226.310268    -99.121156                    
V  7   5153.144030  -4702.952252 -30871.261016      0.113678                    
P  8  17747.784652  -1670.157218  19706.959109    219.653675                    
V  8  16589.585165  18951.920655 -12840.746942      0.185859                    
P  9  -1942.246785 -19994.618012 -17430.171562    226.813292                    
V  9  16296.760665  14880.300423 -19025.160137      0.144833                    
P 10  11953.365610  11722.808619  20906.189051    -38.503881                    
V 10 -25292.174368   5709.728114  11059.739059     -0.078957                    
P 11 -14917.407343  -3065.302739 -21734.520043   -680.941779                    
V 11   9677.736273 -25890.647203  -3040.929958     -0.083451                    
P 12 -21729.795223  10729.228095 -11091.296886   -512.330952                    
V 12 -13869.282524   -494.602977  27438.633129     -0.032320                    
P 13 -19022.475643  -8249.518987  16524.707113    656.456982                    
V 13 -10467.210177 -18570.611112 -20825.180390      0.026737                    
P 14  -7693.977225 -14139.236277  21190.272270    420.424181                    
V 14  26325.540581  -5288.708282   5827.668047      0.091463                    
P 15 -17426.488275   3962.308974  19206.949853    167.865903                    
V 15 -18693.141947 -17410.746845 -12842.641324      0.041592                    
P 16  26350.045375    552.991523  -5184.559243   -269.989647                    
V 16  -5775.385602   2978.680092 -30601.508853      0.103713                    
P 17 -11877.388075 -22757.591930   6897.150601    697.439989                    
V 17   7055.438394   4931.986300  30418.003897     -0.051040                    
P 18  -4967.335664  25390.012999   5528.900455   -622.171877                    
V 18  -4676.409105   5810.926981 -31145.474605     -0.050956                    
P 19 -17157.548608 -20363.978342  -3008.285994    493.486409                    
V 19   -273.681591  -4182.770620  31354.368360      0.053688                    
P 20 -23523.968180    137.912568 -12128.164714    374.059092                    
V 20  13477.951065  -8215.633288 -26246.873639     -0.003715                    
P 21  15533.958190 -12133.472609  17724.974628    116.751007                    
V 21  -2941.997789  21961.418081  19066.850321     -0.023431                    
P 22 -15280.095663 -11441.960875  18763.665601    -24.568893                    
V 22  22750.700893  -4107.234731  16676.914384     -0.050005                    
P 23  -1476.055062  15285.787970  21668.662258    245.288367                    
V 23 -26817.020813   5793.188796  -6112.153152      0.092144                    
P 24 -14592.503483  16311.232251  14337.085836   -476.243591                    
V 24   1221.904338 -19380.732182  23044.406152     -0.027534                    
P 25 -12736.783855  15653.609643 -17472.750383    497.038398                    
V 25 -21559.904851   2863.440565  18898.877467      0.005651                    
P 26  19930.344847   6959.084691 -16482.403346    140.347299                    
V 26 -19177.899320   7807.454659 -19709.967844     -0.061411                    
P 27  21043.156423   9713.609667  13054.448653    -27.444966                    
V 27   9833.623264  13876.889462 -25194.642751     -0.014461                    
P 28   7219.039601  18655.378808 -17483.300762   -279.611701                    
V 28  -7904.260451  20792.705088  18931.378740     -0.169859                    
P 29  -2305.415878  18404.618905 -19015.770102   -595.139071                    
V 29 -15612.493348 -18338.411185 -16015.428423      0.016575                    
P 30  -3602.481755 -22170.652833  14113.413180   -377.616981                    
V 30   8361.160772 -16026.540902 -23555.547895      0.061032                    
P 31  13495.892839   7892.795952 -21654.709041   -227.508009                    
V 31  -9553.784679  25315.153327   3693.414906      0.001887                    
P 32  15072.634256  21526.076672   4750.914042   -616.811661                    
V 32  -5722.074036  -2546.724267  30895.738934      0.009934                    
EOF
